start=new Date('2022-06-27T00:00:00.000Z').valueOf();
sats=[{"MEAN_MOTION":"15.41031144","EPOCH":"2022-06-26T22:00:00.999936","OBJECT_NAME":"STARLINK-4084","APOAPSIS":"443.979","TIME_SYSTEM":"UTC","ECCENTRICITY":"0.00013370","CLASSIFICATION_TYPE":"U","MEAN_ELEMENT_THEORY":"SGP4","TLE_LINE1":"1 52657U 22053B   22177.91667824 -.00720513  00000-0 -18600-1 0  9995","ARG_OF_PERICENTER":"58.2907","SITE":"AFETR","PERIAPSIS":"442.155","DECAY_DATE":null,"NORAD_CAT_ID":"52657","MEAN_MOTION_DOT":"-0.00720513","GP_ID":"206929041","MEAN_MOTION_DDOT":"0.0000000000000","OBJECT_ID":"2022-053B","CENTER_NAME":"EARTH","EPHEMERIS_TYPE":"0","LAUNCH_DATE":"2022-05-18","REF_FRAME":"TEME","FILE":"3503441","TLE_LINE2":"2 52657  53.2175 104.9900 0001337  58.2907  48.1904 15.41031144  1302","COUNTRY_CODE":"US","ELEMENT_SET_NO":"999","MEAN_ANOMALY":"48.1904","PERIOD":"93.444","OBJECT_TYPE":"PAYLOAD","RCS_SIZE":"LARGE","INCLINATION":"53.2175","BSTAR":"-0.01860000000000","RA_OF_ASC_NODE":"104.9900","SEMIMAJOR_AXIS":"6821.202","REV_AT_EPOCH":"130"},{"MEAN_MOTION":"15.41220504","OBJECT_NAME":"STARLINK-4082","EPOCH":"2022-06-26T22:00:00.999936","TIME_SYSTEM":"UTC","APOAPSIS":"443.452","ECCENTRICITY":"0.00013840","CLASSIFICATION_TYPE":"U","MEAN_ELEMENT_THEORY":"SGP4","TLE_LINE1":"1 52658U 22053C   22177.91667824 -.00720282  00000-0 -18476-1 0  9990","PERIAPSIS":"441.564","SITE":"AFETR","ARG_OF_PERICENTER":"55.2402","DECAY_DATE":null,"NORAD_CAT_ID":"52658","MEAN_MOTION_DOT":"-0.00720282","GP_ID":"206929203","MEAN_MOTION_DDOT":"0.0000000000000","OBJECT_ID":"2022-053C","EPHEMERIS_TYPE":"0","CENTER_NAME":"EARTH","LAUNCH_DATE":"2022-05-18","REF_FRAME":"TEME","TLE_LINE2":"2 52658  53.2175 105.0000 0001384  55.2402  56.8364 15.41220504  1301","FILE":"3503441","COUNTRY_CODE":"US","ELEMENT_SET_NO":"999","MEAN_ANOMALY":"56.8364","PERIOD":"93.432","OBJECT_TYPE":"PAYLOAD","RCS_SIZE":"LARGE","INCLINATION":"53.2175","BSTAR":"-0.01847600000000","RA_OF_ASC_NODE":"105.0000","SEMIMAJOR_AXIS":"6820.643","REV_AT_EPOCH":"130"},{"OBJECT_NAME":"STARLINK-3960","EPOCH":"2022-06-26T22:00:00.999936","MEAN_MOTION":"15.41175505","ECCENTRICITY":"0.00013470","TIME_SYSTEM":"UTC","APOAPSIS":"443.560","CLASSIFICATION_TYPE":"U","MEAN_ELEMENT_THEORY":"SGP4","ARG_OF_PERICENTER":"57.9970","SITE":"AFETR","PERIAPSIS":"441.722","TLE_LINE1":"1 52659U 22053D   22177.91667824 -.00720426  00000-0 -18508-1 0  9997","DECAY_DATE":null,"NORAD_CAT_ID":"52659","GP_ID":"206929307","MEAN_MOTION_DOT":"-0.00720426","MEAN_MOTION_DDOT":"0.0000000000000","OBJECT_ID":"2022-053D","CENTER_NAME":"EARTH","EPHEMERIS_TYPE":"0","LAUNCH_DATE":"2022-05-18","REF_FRAME":"TEME","ELEMENT_SET_NO":"999","COUNTRY_CODE":"US","TLE_LINE2":"2 52659  53.2175 104.9979 0001347  57.9970  52.3142 15.41175505  1308","FILE":"3503441","MEAN_ANOMALY":"52.3142","PERIOD":"93.435","RCS_SIZE":"LARGE","OBJECT_TYPE":"PAYLOAD","INCLINATION":"53.2175","BSTAR":"-0.01850800000000","SEMIMAJOR_AXIS":"6820.776","REV_AT_EPOCH":"130","RA_OF_ASC_NODE":"104.9979"},{"MEAN_MOTION":"15.41616823","OBJECT_NAME":"STARLINK-4081","EPOCH":"2022-06-26T22:00:00.999936","APOAPSIS":"442.335","TIME_SYSTEM":"UTC","ECCENTRICITY":"0.00014610","MEAN_ELEMENT_THEORY":"SGP4","CLASSIFICATION_TYPE":"U","TLE_LINE1":"1 52660U 22053E   22177.91667824 -.00720026  00000-0 -18225-1 0  9991","PERIAPSIS":"440.343","SITE":"AFETR","ARG_OF_PERICENTER":"51.9165","DECAY_DATE":null,"NORAD_CAT_ID":"52660","MEAN_MOTION_DOT":"-0.00720026","GP_ID":"206929493","MEAN_MOTION_DDOT":"0.0000000000000","OBJECT_ID":"2022-053E","CENTER_NAME":"EARTH","EPHEMERIS_TYPE":"0","LAUNCH_DATE":"2022-05-18","REF_FRAME":"TEME","FILE":"3503441","TLE_LINE2":"2 52660  53.2175 105.0218 0001461  51.9165  69.7517 15.41616823  1306","COUNTRY_CODE":"US","ELEMENT_SET_NO":"999","MEAN_ANOMALY":"69.7517","PERIOD":"93.408","OBJECT_TYPE":"PAYLOAD","RCS_SIZE":"LARGE","INCLINATION":"53.2175","BSTAR":"-0.01822500000000","RA_OF_ASC_NODE":"105.0218","SEMIMAJOR_AXIS":"6819.474","REV_AT_EPOCH":"130"},{"TLE_LINE1":"1 52661U 22053F   22177.91667824 -.00720012  00000-0 -18104-1 0  9993","SITE":"AFETR","ARG_OF_PERICENTER":"56.4483","PERIAPSIS":"439.805","DECAY_DATE":null,"NORAD_CAT_ID":"52661","CLASSIFICATION_TYPE":"U","MEAN_ELEMENT_THEORY":"SGP4","MEAN_MOTION_DOT":"-0.00720012","GP_ID":"206929388","MEAN_MOTION":"15.41815015","OBJECT_NAME":"STARLINK-4042","EPOCH":"2022-06-26T22:00:00.999936","TIME_SYSTEM":"UTC","APOAPSIS":"441.704","ECCENTRICITY":"0.00013930","OBJECT_TYPE":"PAYLOAD","RCS_SIZE":"LARGE","MEAN_ANOMALY":"69.8769","PERIOD":"93.396","RA_OF_ASC_NODE":"105.0324","REV_AT_EPOCH":"130","SEMIMAJOR_AXIS":"6818.890","INCLINATION":"53.2175","BSTAR":"-0.01810400000000","OBJECT_ID":"2022-053F","CENTER_NAME":"EARTH","EPHEMERIS_TYPE":"0","MEAN_MOTION_DDOT":"0.0000000000000","TLE_LINE2":"2 52661  53.2175 105.0324 0001393  56.4483  69.8769 15.41815015  1306","FILE":"3503441","COUNTRY_CODE":"US","ELEMENT_SET_NO":"999","LAUNCH_DATE":"2022-05-18","REF_FRAME":"TEME"},{"RCS_SIZE":"LARGE","OBJECT_TYPE":"PAYLOAD","PERIOD":"93.372","MEAN_ANOMALY":"89.2993","SEMIMAJOR_AXIS":"6817.722","REV_AT_EPOCH":"130","RA_OF_ASC_NODE":"105.0541","BSTAR":"-0.01785400000000","INCLINATION":"53.2175","CENTER_NAME":"EARTH","EPHEMERIS_TYPE":"0","OBJECT_ID":"2022-053G","MEAN_MOTION_DDOT":"0.0000000000000","ELEMENT_SET_NO":"999","COUNTRY_CODE":"US","TLE_LINE2":"2 52662  53.2175 105.0541 0001579  46.0629  89.2993 15.42211251  1309","FILE":"3503441","REF_FRAME":"TEME","LAUNCH_DATE":"2022-05-18","DECAY_DATE":null,"NORAD_CAT_ID":"52662","SITE":"AFETR","ARG_OF_PERICENTER":"46.0629","PERIAPSIS":"438.510","TLE_LINE1":"1 52662U 22053G   22177.91667824 -.00719655  00000-0 -17854-1 0  9996","MEAN_ELEMENT_THEORY":"SGP4","CLASSIFICATION_TYPE":"U","GP_ID":"206928857","MEAN_MOTION_DOT":"-0.00719655","EPOCH":"2022-06-26T22:00:00.999936","OBJECT_NAME":"STARLINK-4044","MEAN_MOTION":"15.42211251","ECCENTRICITY":"0.00015790","TIME_SYSTEM":"UTC","APOAPSIS":"440.663"},{"INCLINATION":"53.2175","BSTAR":"-0.01773200000000","RA_OF_ASC_NODE":"105.0645","SEMIMAJOR_AXIS":"6817.138","REV_AT_EPOCH":"130","MEAN_ANOMALY":"90.6030","PERIOD":"93.360","OBJECT_TYPE":"PAYLOAD","RCS_SIZE":"LARGE","LAUNCH_DATE":"2022-05-18","REF_FRAME":"TEME","TLE_LINE2":"2 52663  53.2175 105.0645 0001540  49.1390  90.6030 15.42409431  1309","FILE":"3503441","COUNTRY_CODE":"US","ELEMENT_SET_NO":"999","MEAN_MOTION_DDOT":"0.0000000000000","OBJECT_ID":"2022-053H","CENTER_NAME":"EARTH","EPHEMERIS_TYPE":"0","MEAN_MOTION_DOT":"-0.00719532","GP_ID":"206928961","CLASSIFICATION_TYPE":"U","MEAN_ELEMENT_THEORY":"SGP4","TLE_LINE1":"1 52663U 22053H   22177.91667824 -.00719532  00000-0 -17732-1 0  9996","PERIAPSIS":"437.953","SITE":"AFETR","ARG_OF_PERICENTER":"49.1390","NORAD_CAT_ID":"52663","DECAY_DATE":null,"APOAPSIS":"440.052","TIME_SYSTEM":"UTC","ECCENTRICITY":"0.00015400","MEAN_MOTION":"15.42409431","OBJECT_NAME":"STARLINK-4037","EPOCH":"2022-06-26T22:00:00.999936"},{"ECCENTRICITY":"0.00015760","APOAPSIS":"441.245","TIME_SYSTEM":"UTC","OBJECT_NAME":"STARLINK-4070","EPOCH":"2022-06-26T22:00:00.999936","MEAN_MOTION":"15.42013040","GP_ID":"206929559","MEAN_MOTION_DOT":"-0.00719709","DECAY_DATE":null,"NORAD_CAT_ID":"52664","ARG_OF_PERICENTER":"45.9024","SITE":"AFETR","PERIAPSIS":"439.096","TLE_LINE1":"1 52664U 22053J   22177.91667824 -.00719709  00000-0 -17975-1 0  9992","CLASSIFICATION_TYPE":"U","MEAN_ELEMENT_THEORY":"SGP4","ELEMENT_SET_NO":"999","FILE":"3503441","TLE_LINE2":"2 52664  53.2175 105.0433 0001576  45.9024  84.9876 15.42013040  1303","COUNTRY_CODE":"US","REF_FRAME":"TEME","LAUNCH_DATE":"2022-05-18","EPHEMERIS_TYPE":"0","CENTER_NAME":"EARTH","OBJECT_ID":"2022-053J","MEAN_MOTION_DDOT":"0.0000000000000","SEMIMAJOR_AXIS":"6818.306","REV_AT_EPOCH":"130","RA_OF_ASC_NODE":"105.0433","BSTAR":"-0.01797500000000","INCLINATION":"53.2175","RCS_SIZE":"LARGE","OBJECT_TYPE":"PAYLOAD","PERIOD":"93.384","MEAN_ANOMALY":"84.9876"},{"INCLINATION":"53.2175","BSTAR":"-0.01737000000000","SEMIMAJOR_AXIS":"6815.413","REV_AT_EPOCH":"130","RA_OF_ASC_NODE":"105.0946","MEAN_ANOMALY":"118.0929","PERIOD":"93.325","RCS_SIZE":"LARGE","OBJECT_TYPE":"PAYLOAD","LAUNCH_DATE":"2022-05-18","REF_FRAME":"TEME","ELEMENT_SET_NO":"999","FILE":"3503441","TLE_LINE2":"2 52665  53.2175 105.0946 0001925  34.9352 118.0929 15.42995082  1306","COUNTRY_CODE":"US","MEAN_MOTION_DDOT":"0.0000000000000","OBJECT_ID":"2022-053K","CENTER_NAME":"EARTH","EPHEMERIS_TYPE":"0","GP_ID":"206929042","MEAN_MOTION_DOT":"-0.00719038","MEAN_ELEMENT_THEORY":"SGP4","CLASSIFICATION_TYPE":"U","SITE":"AFETR","PERIAPSIS":"435.966","ARG_OF_PERICENTER":"34.9352","TLE_LINE1":"1 52665U 22053K   22177.91667824 -.00719038  00000-0 -17370-1 0  9997","DECAY_DATE":null,"NORAD_CAT_ID":"52665","ECCENTRICITY":"0.00019250","APOAPSIS":"438.589","TIME_SYSTEM":"UTC","EPOCH":"2022-06-26T22:00:00.999936","OBJECT_NAME":"STARLINK-4064","MEAN_MOTION":"15.42995082"},{"ECCENTRICITY":"0.00019430","TIME_SYSTEM":"UTC","APOAPSIS":"439.744","EPOCH":"2022-06-26T22:00:00.999936","OBJECT_NAME":"STARLINK-4079","MEAN_MOTION":"15.42607470","GP_ID":"206929204","MEAN_MOTION_DOT":"-0.00719222","SITE":"AFETR","ARG_OF_PERICENTER":"33.7710","PERIAPSIS":"437.095","TLE_LINE1":"1 52666U 22053L   22177.91667824 -.00719222  00000-0 -17604-1 0  9993","NORAD_CAT_ID":"52666","DECAY_DATE":null,"MEAN_ELEMENT_THEORY":"SGP4","CLASSIFICATION_TYPE":"U","ELEMENT_SET_NO":"999","COUNTRY_CODE":"US","TLE_LINE2":"2 52666  53.2175 105.0752 0001943  33.7710 110.2583 15.42607470  1308","FILE":"3503441","LAUNCH_DATE":"2022-05-18","REF_FRAME":"TEME","OBJECT_ID":"2022-053L","EPHEMERIS_TYPE":"0","CENTER_NAME":"EARTH","MEAN_MOTION_DDOT":"0.0000000000000","REV_AT_EPOCH":"130","SEMIMAJOR_AXIS":"6816.554","RA_OF_ASC_NODE":"105.0752","INCLINATION":"53.2175","BSTAR":"-0.01760400000000","RCS_SIZE":"LARGE","OBJECT_TYPE":"PAYLOAD","MEAN_ANOMALY":"110.2583","PERIOD":"93.348"}];
